*******************************************************************************
JPL/HORIZONS                 319 Leona (A891 TA)           2023-Sep-04 11:05:39
Rec #:     319 (+COV) Soln.date: 2023-Aug-23_07:47:51   # obs: 4166 (1891-2023)
 
IAU76/J2000 helio. ecliptic osc. elements (au, days, deg., period=Julian yrs):
 
  EPOCH=  2457017.5 ! 2014-Dec-26.00 (TDB)         Residual RMS= .23837
   EC= .2178224133862089   QR= 2.663363198505986   TP= 2457864.1489095632
   OM= 184.962529383432    W=  228.3718399449857   IN= 10.56273964641189
   A= 3.405062026944849    MA= 227.1933303859497   ADIST= 4.146760855383713
   PER= 6.28341            N= .156861561           ANGMOM= .030980514
   DAN= 3.79223            DDN= 2.8335             L= 52.8476867
   B= -7.8754777           MOID= 1.68690002        TP= 2017-Apr-20.6489095632
 
Asteroid physical parameters (km, seconds, rotational period in hours):
   GM= n.a.                RAD= 24.9715            ROTPER= 430.
   H= 10.23                G= .150                 B-V= n.a.
                           ALBEDO= .085            STYP= n.a.

ASTEROID comments: 
1: soln ref.= JPL#69, OCC=0
2: source=ORB
*******************************************************************************


*******************************************************************************
Ephemeris / API_USER Mon Sep  4 11:05:39 2023 Pasadena, USA      / Horizons
*******************************************************************************
Target body name: 319 Leona (A891 TA)             {source: JPL#69}
Center body name: Solar System Barycenter (0)     {source: DE441}
Center-site name: BODY CENTER
*******************************************************************************
Start time      : A.D. 2023-Aug-12 00:00:00.0000 TDB
Stop  time      : A.D. 2023-Aug-13 00:00:00.0000 TDB
Step-size       : 2880 minutes
*******************************************************************************
Center geodetic : 0.0, 0.0, 0.0                   {E-lon(deg),Lat(deg),Alt(km)}
Center cylindric: 0.0, 0.0, 0.0                   {E-lon(deg),Dxy(km),Dz(km)}
Center radii    : (undefined)
Small perturbers: Yes                             {source: SB441-N16}
Output units    : KM-S
Calendar mode   : Mixed Julian/Gregorian
Output type     : GEOMETRIC cartesian states
Output format   : 2 (position and velocity)
Reference frame : Ecliptic of J2000.0
*******************************************************************************
Initial IAU76/J2000 heliocentric ecliptic osculating elements (au, days, deg.):
  EPOCH=  2457017.5 ! 2014-Dec-26.00 (TDB)         Residual RMS= .23837        
   EC= .2178224133862089   QR= 2.663363198505986   TP= 2457864.1489095632      
   OM= 184.962529383432    W=  228.3718399449857   IN= 10.56273964641189       
  Equivalent ICRF heliocentric cartesian coordinates (au, au/d):
   X=-3.342586728131089E-01  Y=-3.863537521386644E+00  Z=-8.913899420368001E-01
  VX= 7.849744471932641E-03 VY= 4.033382797277063E-04 VZ= 2.202121986316439E-04
Asteroid physical parameters (km, seconds, rotational period in hours):        
   GM= n.a.                RAD= 24.9715            ROTPER= 430.                
   H= 10.23                G= .150                 B-V= n.a.                   
                           ALBEDO= .085            STYP= n.a.                  
*******************************************************************************
JDTDB
   X     Y     Z
   VX    VY    VZ
*******************************************************************************
$$SOE
2460168.500000000 = A.D. 2023-Aug-12 00:00:00.0000 TDB 
 X = 2.234852821514710E+08 Y = 3.265856431851612E+08 Z =-5.715031428838293E+07
 VX=-1.645596454294941E+01 VY= 1.120274782808528E+01 VZ=-2.344707241468881E+00
$$EOE
*******************************************************************************
 
TIME

  Barycentric Dynamical Time ("TDB" or T_eph) output was requested. This
continuous coordinate time is equivalent to the relativistic proper time
of a clock at rest in a reference frame co-moving with the solar system
barycenter but outside the system's gravity well. It is the independent
variable in the solar system relativistic equations of motion.

  TDB runs at a uniform rate of one SI second per second and is independent
of irregularities in Earth's rotation.
 
CALENDAR SYSTEM

  Mixed calendar mode was active such that calendar dates after AD 1582-Oct-15
(if any) are in the modern Gregorian system. Dates prior to 1582-Oct-5 (if any)
are in the Julian calendar system, which is automatically extended for dates
prior to its adoption on 45-Jan-1 BC.  The Julian calendar is useful for
matching historical dates. The Gregorian calendar more accurately corresponds
to the Earth's orbital motion and seasons. A "Gregorian-only" calendar mode is
available if such physical events are the primary interest.

REFERENCE FRAME AND COORDINATES

  Ecliptic at the standard reference epoch

    Reference epoch: J2000.0
    X-Y plane: adopted Earth orbital plane at the reference epoch
               Note: IAU76 obliquity of 84381.448 arcseconds wrt ICRF X-Y plane
    X-axis   : ICRF
    Z-axis   : perpendicular to the X-Y plane in the directional (+ or -) sense
               of Earth's north pole at the reference epoch.

  Symbol meaning:

    JDTDB    Julian Day Number, Barycentric Dynamical Time
      X      X-component of position vector (km)
      Y      Y-component of position vector (km)
      Z      Z-component of position vector (km)
      VX     X-component of velocity vector (km/sec)                           
      VY     Y-component of velocity vector (km/sec)                           
      VZ     Z-component of velocity vector (km/sec)                           

ABERRATIONS AND CORRECTIONS

 Geometric state vectors have NO corrections or aberrations applied.

Computations by ...

    Solar System Dynamics Group, Horizons On-Line Ephemeris System
    4800 Oak Grove Drive, Jet Propulsion Laboratory
    Pasadena, CA  91109   USA

    General site: https://ssd.jpl.nasa.gov/
    Mailing list: https://ssd.jpl.nasa.gov/email_list.html
    System news : https://ssd.jpl.nasa.gov/horizons/news.html
    User Guide  : https://ssd.jpl.nasa.gov/horizons/manual.html
    Connect     : browser        https://ssd.jpl.nasa.gov/horizons/app.html#/x
                  API            https://ssd-api.jpl.nasa.gov/doc/horizons.html
                  command-line   telnet ssd.jpl.nasa.gov 6775
                  e-mail/batch   https://ssd.jpl.nasa.gov/ftp/ssd/hrzn_batch.txt
                  scripts        https://ssd.jpl.nasa.gov/ftp/ssd/SCRIPTS
    Author      : Jon.D.Giorgini@jpl.nasa.gov
*******************************************************************************
